[
    {
        "Altitude(m)": 624790.7736040895,
        "Argument of Periapsis(deg)": 0.0,
        "Eccentricity": 0.0,
        "Inclination(deg)": 60.0,
        "Latitude(deg)": -59.14705053782744,
        "Longitude(deg)": 126.03453244559871,
        "Mean Anomaly(deg)": -81.81820000000006,
        "RAAN(deg)": 300.0,
        "Satellite Name": "Test1 1337",
        "Satellite Number": 1337,
        "Semi-Major Axis(m)": 6980739.136638005,
        "Time(s)": 0
    },
    {
        "Altitude(m)": 624737.4289013378,
        "Argument of Periapsis(deg)": 0.00010418945913296404,
        "Eccentricity": 0.0,
        "Inclination(deg)": 60.0,
        "Latitude(deg)": -58.99450655313618,
        "Longitude(deg)": 127.15403282958835,
        "Mean Anomaly(deg)": -81.1980938545382,
        "RAAN(deg)": 299.99957995086027,
        "Satellite Name": "Test1 1337",
        "Satellite Number": 1337,
        "Semi-Major Axis(m)": 6980739.136638005,
        "Time(s)": 10
    },
    {
        "Altitude(m)": 624680.3006103194,
        "Argument of Periapsis(deg)": 0.0002083789182659281,
        "Eccentricity": 0.0,
        "Inclination(deg)": 60.0,
        "Latitude(deg)": -58.831650988442554,
        "Longitude(deg)": 128.26298093521817,
        "Mean Anomaly(deg)": -80.57798770907635,
        "RAAN(deg)": 299.99915990172053,
        "Satellite Name": "Test1 1337",
        "Satellite Number": 1337,
        "Semi-Major Axis(m)": 6980739.136638005,
        "Time(s)": 20
    },
    {
        "Altitude(m)": 624619.4111963204,
        "Argument of Periapsis(deg)": 0.00031256837739889213,
        "Eccentricity": 0.0,
        "Inclination(deg)": 60.0,
        "Latitude(deg)": -58.65864447892858,
        "Longitude(deg)": 129.36086868823574,
        "Mean Anomaly(deg)": -79.95788156361455,
        "RAAN(deg)": 299.9987398525808,
        "Satellite Name": "Test1 1337",
        "Satellite Number": 1337,
        "Semi-Major Axis(m)": 6980739.136638005,
        "Time(s)": 30
    },
    {
        "Altitude(m)": 624554.7846017081,
        "Argument of Periapsis(deg)": 0.0004167578365318562,
        "Eccentricity": 0.0,
        "Inclination(deg)": 60.0,
        "Latitude(deg)": -58.47565404428356,
        "Longitude(deg)": 130.4472281170473,
        "Mean Anomaly(deg)": -79.3377754181527,
        "RAAN(deg)": 299.99831980344106,
        "Satellite Name": "Test1 1337",
        "Satellite Number": 1337,
        "Semi-Major Axis(m)": 6980739.136638005,
        "Time(s)": 40
    },
    {
        "Altitude(m)": 624486.4462358239,
        "Argument of Periapsis(deg)": 0.0005209472956648203,
        "Eccentricity": 0.0,
        "Inclination(deg)": 60.0,
        "Latitude(deg)": -58.28285238612989,
        "Longitude(deg)": 131.52163059002143,
        "Mean Anomaly(deg)": -78.71766927269084,
        "RAAN(deg)": 299.9978997543013,
        "Satellite Name": "Test1 1337",
        "Satellite Number": 1337,
        "Semi-Major Axis(m)": 6980739.136638005,
        "Time(s)": 50
    },
    {
        "Altitude(m)": 624414.422964265,
        "Argument of Periapsis(deg)": 0.0006251367547977843,
        "Eccentricity": 0.0,
        "Inclination(deg)": 60.0,
        "Latitude(deg)": -58.080417191411094,
        "Longitude(deg)": 132.58368728120124,
        "Mean Anomaly(deg)": -78.09756312722898,
        "RAAN(deg)": 299.99747970516154,
        "Satellite Name": "Test1 1337",
        "Satellite Number": 1337,
        "Semi-Major Axis(m)": 6980739.136638005,
        "Time(s)": 60
    },
    {
        "Altitude(m)": 624338.7430975506,
        "Argument of Periapsis(deg)": 0.0007293262139307483,
        "Eccentricity": 0.0,
        "Inclination(deg)": 60.0,
        "Latitude(deg)": -57.86853044700994,
        "Longitude(deg)": 133.6330493710826,
        "Mean Anomaly(deg)": -77.47745698176719,
        "RAAN(deg)": 299.99705965602186,
        "Satellite Name": "Test1 1337",
        "Satellite Number": 1337,
        "Semi-Major Axis(m)": 6980739.136638005,
        "Time(s)": 70
    },
    {
        "Altitude(m)": 624259.4363791754,
        "Argument of Periapsis(deg)": 0.0008335156730637124,
        "Eccentricity": 0.0,
        "Inclination(deg)": 60.0,
        "Latitude(deg)": -57.64737777034214,
        "Longitude(deg)": 134.66940649124888,
        "Mean Anomaly(deg)": -76.85735083630533,
        "RAAN(deg)": 299.99663960688207,
        "Satellite Name": "Test1 1337",
        "Satellite Number": 1337,
        "Semi-Major Axis(m)": 6980739.136638005,
        "Time(s)": 80
    },
    {
        "Altitude(m)": 624176.5339730384,
        "Argument of Periapsis(deg)": 0.0009377051321966765,
        "Eccentricity": 0.0,
        "Inclination(deg)": 60.0,
        "Latitude(deg)": -57.417147760124436,
        "Longitude(deg)": 135.692486461793,
        "Mean Anomaly(deg)": -76.23724469084348,
        "RAAN(deg)": 299.99621955774234,
        "Satellite Name": "Test1 1337",
        "Satellite Number": 1337,
        "Semi-Major Axis(m)": 6980739.136638005,
        "Time(s)": 90
    },
    {
        "Altitude(m)": 624090.0684502821,
        "Argument of Periapsis(deg)": 0.0010418945913296407,
        "Eccentricity": 0.0,
        "Inclination(deg)": 60.0,
        "Latitude(deg)": -57.178031370945895,
        "Longitude(deg)": 136.70205483282678,
        "Mean Anomaly(deg)": -75.61713854538162,
        "RAAN(deg)": 299.9957995086026,
        "Satellite Name": "Test1 1337",
        "Satellite Number": 1337,
        "Semi-Major Axis(m)": 6980739.136638005,
        "Time(s)": 100
    },
    {
        "Altitude(m)": 624000.0737755249,
        "Argument of Periapsis(deg)": 0.0011460840504626045,
        "Eccentricity": 0.0,
        "Inclination(deg)": 60.0,
        "Latitude(deg)": -56.930221314700816,
        "Longitude(deg)": 137.69791274181193,
        "Mean Anomaly(deg)": -74.99703239991983,
        "RAAN(deg)": 299.99537945946287,
        "Satellite Name": "Test1 1337",
        "Satellite Number": 1337,
        "Semi-Major Axis(m)": 6980739.136638005,
        "Time(s)": 110
    },
    {
        "Altitude(m)": 623906.5852924902,
        "Argument of Periapsis(deg)": 0.0012502735095955685,
        "Eccentricity": 0.0,
        "Inclination(deg)": 60.0,
        "Latitude(deg)": -56.67391149138981,
        "Longitude(deg)": 138.67989613703307,
        "Mean Anomaly(deg)": -74.37692625445797,
        "RAAN(deg)": 299.99495941032313,
        "Satellite Name": "Test1 1337",
        "Satellite Number": 1337,
        "Semi-Major Axis(m)": 6980739.136638005,
        "Time(s)": 120
    },
    {
        "Altitude(m)": 623809.6397090647,
        "Argument of Periapsis(deg)": 0.0013544629687285324,
        "Eccentricity": 0.0,
        "Inclination(deg)": 60.0,
        "Latitude(deg)": -56.409296451248075,
        "Longitude(deg)": 139.6478748784639,
        "Mean Anomaly(deg)": -73.75682010899622,
        "RAAN(deg)": 299.99453936118334,
        "Satellite Name": "Test1 1337",
        "Satellite Number": 1337,
        "Semi-Major Axis(m)": 6980739.136638005,
        "Time(s)": 130
    },
    {
        "Altitude(m)": 623709.2750817426,
        "Argument of Periapsis(deg)": 0.0014586524278614966,
        "Eccentricity": 0.0,
        "Inclination(deg)": 60.0,
        "Latitude(deg)": -56.136570889648034,
        "Longitude(deg)": 140.60175022647167,
        "Mean Anomaly(deg)": -73.13671396353436,
        "RAAN(deg)": 299.9941193120436,
        "Satellite Name": "Test1 1337",
        "Satellite Number": 1337,
        "Semi-Major Axis(m)": 6980739.136638005,
        "Time(s)": 140
    },
    {
        "Altitude(m)": 623605.5307995119,
        "Argument of Periapsis(deg)": 0.0015628418869944607,
        "Eccentricity": 0.0,
        "Inclination(deg)": 60.0,
        "Latitude(deg)": -55.85592917574959,
        "Longitude(deg)": 141.54145376629958,
        "Mean Anomaly(deg)": -72.51660781807257,
        "RAAN(deg)": 299.99369926290393,
        "Satellite Name": "Test1 1337",
        "Satellite Number": 1337,
        "Semi-Major Axis(m)": 6980739.136638005,
        "Time(s)": 150
    },
    {
        "Altitude(m)": 623498.4475671727,
        "Argument of Periapsis(deg)": 0.0016670313461274247,
        "Eccentricity": 0.0,
        "Inclination(deg)": 60.0,
        "Latitude(deg)": -55.56756491542429,
        "Longitude(deg)": 142.46694627632036,
        "Mean Anomaly(deg)": -71.89650167261071,
        "RAAN(deg)": 299.99327921376414,
        "Satellite Name": "Test1 1337",
        "Satellite Number": 1337,
        "Semi-Major Axis(m)": 6980739.136638005,
        "Time(s)": 160
    },
    {
        "Altitude(m)": 623388.0673880564,
        "Argument of Periapsis(deg)": 0.0017712208052603888,
        "Eccentricity": 0.0,
        "Inclination(deg)": 60.0,
        "Latitude(deg)": -55.271670548581696,
        "Longitude(deg)": 143.37821504652163,
        "Mean Anomaly(deg)": -71.27639552714896,
        "RAAN(deg)": 299.9928591646244,
        "Satellite Name": "Test1 1337",
        "Satellite Number": 1337,
        "Semi-Major Axis(m)": 6980739.136638005,
        "Time(s)": 170
    },
    {
        "Altitude(m)": 623274.4335462201,
        "Argument of Periapsis(deg)": 0.001875410264393353,
        "Eccentricity": 0.0,
        "Inclination(deg)": 60.0,
        "Latitude(deg)": -54.96843698067511,
        "Longitude(deg)": 144.27527269066033,
        "Mean Anomaly(deg)": -70.65628938168712,
        "RAAN(deg)": 299.9924391154847,
        "Satellite Name": "Test1 1337",
        "Satellite Number": 1337,
        "Semi-Major Axis(m)": 6980739.136638005,
        "Time(s)": 180
    },
    {
        "Altitude(m)": 623157.590588057,
        "Argument of Periapsis(deg)": 0.0019795997235263173,
        "Eccentricity": 0.0,
        "Inclination(deg)": 60.0,
        "Latitude(deg)": -54.6580532478492,
        "Longitude(deg)": 145.15815595518478,
        "Mean Anomaly(deg)": -70.03618323622531,
        "RAAN(deg)": 299.99201906634494,
        "Satellite Name": "Test1 1337",
        "Satellite Number": 1337,
        "Semi-Major Axis(m)": 6980739.136638005,
        "Time(s)": 190
    }
]